[{"OBJECT_NAME":"STARLINK-35358","OBJECT_ID":"2025-268H","EPOCH":"2026-03-09T04:19:45.468768","MEAN_MOTION":15.27581703,"ECCENTRICITY":0.00017583,"INCLINATION":43.0022,"RA_OF_ASC_NODE":349.7872,"ARG_OF_PERICENTER":257.8104,"MEAN_ANOMALY":102.2551,"EPHEMERIS_TYPE":0,"CLASSIFICATION_TYPE":"U","NORAD_CAT_ID":66564,"ELEMENT_SET_NO":999,"REV_AT_EPOCH":1788,"BSTAR":0.0012274192,"MEAN_MOTION_DOT":0.0003367,"MEAN_MOTION_DDOT":0},{"OBJECT_NAME":"CZ-6A DEB","OBJECT_ID":"2022-151ME","EPOCH":"2026-03-09T17:07:50.636064","MEAN_MOTION":15.20556855,"ECCENTRICITY":0.00283971,"INCLINATION":98.6182,"RA_OF_ASC_NODE":149.2426,"ARG_OF_PERICENTER":178.5587,"MEAN_ANOMALY":181.5732,"EPHEMERIS_TYPE":0,"CLASSIFICATION_TYPE":"U","NORAD_CAT_ID":54578,"ELEMENT_SET_NO":999,"REV_AT_EPOCH":10518,"BSTAR":0.0077423675,"MEAN_MOTION_DOT":0.00175116,"MEAN_MOTION_DDOT":0}]
